{"type": "FeatureCollection", "features": [{"type": "Feature", "properties": {"norad_id": 36828, "name": "BEIDOU-2 IGSO-1 (C06)", "group": "beidou", "lat": -52.34730198822865, "lon": 95.69077449626774, "alt_km": 35703.93142109439, "timestamp": "2025-12-02T17:49:12.292814+00:00", "meta": {"OBJECT_NAME": "BEIDOU-2 IGSO-1 (C06)", "OBJECT_ID": "2010-036A", "EPOCH": "2025-12-01T10:54:26.819712", "MEAN_MOTION": 1.00279202, "ECCENTRICITY": 0.00512823, "INCLINATION": 54.2832, "RA_OF_ASC_NODE": 164.751, "ARG_OF_PERICENTER": 215.7518, "MEAN_ANOMALY": 321.3962, "EPHEMERIS_TYPE": 0, "CLASSIFICATION_TYPE": "U", "NORAD_CAT_ID": 36828, "ELEMENT_SET_NO": 999, "REV_AT_EPOCH": 5611, "BSTAR": 0, "MEAN_MOTION_DOT": -1.7e-07, "MEAN_MOTION_DDOT": 0}, "tle": {"line1": "1 36828U 10036A   25335.45447708 -.00000017  00000+0  00000+0 0  9991", "line2": "2 36828  54.2832 164.7510 0051282 215.7518 321.3962  1.00279202 56116"}}, "geometry": {"type": "Point", "coordinates": [95.69077449626774, -52.34730198822865]}}, {"type": "Feature", "properties": {"norad_id": 37210, "name": "BEIDOU-2 G4 (C04)", "group": "beidou", "lat": 2.950470126605553, "lon": 139.05318457527326, "alt_km": 35807.92431884167, "timestamp": "2025-12-02T17:49:12.292837+00:00", "meta": {"OBJECT_NAME": "BEIDOU-2 G4 (C04)", "OBJECT_ID": "2010-057A", "EPOCH": "2025-12-02T10:49:38.522784", "MEAN_MOTION": 1.00271394, "ECCENTRICITY": 0.0010858, "INCLINATION": 3.157, "RA_OF_ASC_NODE": 69.9629, "ARG_OF_PERICENTER": 188.0022, "MEAN_ANOMALY": 136.0718, "EPHEMERIS_TYPE": 0, "CLASSIFICATION_TYPE": "U", "NORAD_CAT_ID": 37210, "ELEMENT_SET_NO": 999, "REV_AT_EPOCH": 5531, "BSTAR": 0, "MEAN_MOTION_DOT": -9.2e-07, "MEAN_MOTION_DDOT": 0}, "tle": {"line1": "1 37210U 10057A   25336.45114031 -.00000092  00000+0  00000+0 0  9994", "line2": "2 37210   3.1570  69.9629 0010858 188.0022 136.0718  1.00271394 55312"}}, "geometry": {"type": "Point", "coordinates": [139.05318457527326, 2.950470126605553]}}, {"type": "Feature", "properties": {"norad_id": 37256, "name": "BEIDOU-2 IGSO-2 (C07)", "group": "beidou", "lat": 6.1814987145607985, "lon": 88.62258693959983, "alt_km": 35632.77834364011, "timestamp": "2025-12-02T17:49:12.292851+00:00", "meta": {"OBJECT_NAME": "BEIDOU-2 IGSO-2 (C07)", "OBJECT_ID": "2010-068A", "EPOCH": "2025-11-30T14:15:56.539296", "MEAN_MOTION": 1.00290004, "ECCENTRICITY": 0.0049401, "INCLINATION": 47.9109, "RA_OF_ASC_NODE": 274.301, "ARG_OF_PERICENTER": 216.3834, "MEAN_ANOMALY": 260.0417, "EPHEMERIS_TYPE": 0, "CLASSIFICATION_TYPE": "U", "NORAD_CAT_ID": 37256, "ELEMENT_SET_NO": 999, "REV_AT_EPOCH": 5480, "BSTAR": 0, "MEAN_MOTION_DOT": -2.25e-06, "MEAN_MOTION_DDOT": 0}, "tle": {"line1": "1 37256U 10068A   25334.59440439 -.00000225  00000+0  00000+0 0  9991", "line2": "2 37256  47.9109 274.3010 0049401 216.3834 260.0417  1.00290004 54800"}}, "geometry": {"type": "Point", "coordinates": [88.62258693959983, 6.1814987145607985]}}, {"type": "Feature", "properties": {"norad_id": 37384, "name": "BEIDOU-2 IGSO-3 (C08)", "group": "beidou", "lat": 38.32961336361642, "lon": 66.71812480583566, "alt_km": 35899.840699785374, "timestamp": "2025-12-02T17:49:12.292864+00:00", "meta": {"OBJECT_NAME": "BEIDOU-2 IGSO-3 (C08)", "OBJECT_ID": "2011-013A", "EPOCH": "2025-11-29T21:04:05.094336", "MEAN_MOTION": 1.00273417, "ECCENTRICITY": 0.00356655, "INCLINATION": 62.1255, "RA_OF_ASC_NODE": 42.0418, "ARG_OF_PERICENTER": 186.0158, "MEAN_ANOMALY": 264.7363, "EPHEMERIS_TYPE": 0, "CLASSIFICATION_TYPE": "U", "NORAD_CAT_ID": 37384, "ELEMENT_SET_NO": 999, "REV_AT_EPOCH": 5366, "BSTAR": 0, "MEAN_MOTION_DOT": -1.94e-06, "MEAN_MOTION_DDOT": 0}, "tle": {"line1": "1 37384U 11013A   25333.87783674 -.00000194  00000+0  00000+0 0  9990", "line2": "2 37384  62.1255  42.0418 0035665 186.0158 264.7363  1.00273417 53667"}}, "geometry": {"type": "Point", "coordinates": [66.71812480583566, 38.32961336361642]}}, {"type": "Feature", "properties": {"norad_id": 37763, "name": "BEIDOU-2 IGSO-4 (C09)", "group": "beidou", "lat": -54.391114049933186, "lon": 71.75654056640563, "alt_km": 35280.00424255541, "timestamp": "2025-12-02T17:49:12.292877+00:00", "meta": {"OBJECT_NAME": "BEIDOU-2 IGSO-4 (C09)", "OBJECT_ID": "2011-038A", "EPOCH": "2025-11-28T12:37:32.473920", "MEAN_MOTION": 1.00284857, "ECCENTRICITY": 0.01486323, "INCLINATION": 54.5801, "RA_OF_ASC_NODE": 167.4746, "ARG_OF_PERICENTER": 230.1967, "MEAN_ANOMALY": 313.2933, "EPHEMERIS_TYPE": 0, "CLASSIFICATION_TYPE": "U", "NORAD_CAT_ID": 37763, "ELEMENT_SET_NO": 999, "REV_AT_EPOCH": 5263, "BSTAR": 0, "MEAN_MOTION_DOT": 8.5e-07, "MEAN_MOTION_DDOT": 0}, "tle": {"line1": "1 37763U 11038A   25332.52607030  .00000085  00000+0  00000+0 0  9998", "line2": "2 37763  54.5801 167.4746 0148632 230.1967 313.2933  1.00284857 52633"}}, "geometry": {"type": "Point", "coordinates": [71.75654056640563, -54.391114049933186]}}, {"type": "Feature", "properties": {"norad_id": 37948, "name": "BEIDOU-2 IGSO-5 (C10)", "group": "beidou", "lat": 17.320785083623853, "lon": 77.6754865701389, "alt_km": 35583.36187664466, "timestamp": "2025-12-02T17:49:12.292890+00:00", "meta": {"OBJECT_NAME": "BEIDOU-2 IGSO-5 (C10)", "OBJECT_ID": "2011-073A", "EPOCH": "2025-12-01T19:23:12.254208", "MEAN_MOTION": 1.00292861, "ECCENTRICITY": 0.01108827, "INCLINATION": 48.0424, "RA_OF_ASC_NODE": 273.9939, "ARG_OF_PERICENTER": 222.2372, "MEAN_ANOMALY": 317.7789, "EPHEMERIS_TYPE": 0, "CLASSIFICATION_TYPE": "U", "NORAD_CAT_ID": 37948, "ELEMENT_SET_NO": 999, "REV_AT_EPOCH": 5115, "BSTAR": 0, "MEAN_MOTION_DOT": -1.75e-06, "MEAN_MOTION_DDOT": 0}, "tle": {"line1": "1 37948U 11073A   25335.80778072 -.00000175  00000+0  00000+0 0  9992", "line2": "2 37948  48.0424 273.9939 0110882 222.2372 317.7789  1.00292861 51150"}}, "geometry": {"type": "Point", "coordinates": [77.6754865701389, 17.320785083623853]}}, {"type": "Feature", "properties": {"norad_id": 38091, "name": "BEIDOU-2 G5 (C05)", "group": "beidou", "lat": -1.6438654174134486, "lon": 37.993773198501536, "alt_km": 35796.912480255014, "timestamp": "2025-12-02T17:49:12.292902+00:00", "meta": {"OBJECT_NAME": "BEIDOU-2 G5 (C05)", "OBJECT_ID": "2012-008A", "EPOCH": "2025-12-02T05:30:12.619872", "MEAN_MOTION": 1.00271982, "ECCENTRICITY": 0.0012222, "INCLINATION": 3.0809, "RA_OF_ASC_NODE": 70.7374, "ARG_OF_PERICENTER": 225.4124, "MEAN_ANOMALY": 276.4387, "EPHEMERIS_TYPE": 0, "CLASSIFICATION_TYPE": "U", "NORAD_CAT_ID": 38091, "ELEMENT_SET_NO": 999, "REV_AT_EPOCH": 5039, "BSTAR": 0, "MEAN_MOTION_DOT": 7.7e-07, "MEAN_MOTION_DDOT": 0}, "tle": {"line1": "1 38091U 12008A   25336.22931273  .00000077  00000+0  00000+0 0  9992", "line2": "2 38091   3.0809  70.7374 0012222 225.4124 276.4387  1.00271982 50394"}}, "geometry": {"type": "Point", "coordinates": [37.993773198501536, -1.6438654174134486]}}, {"type": "Feature", "properties": {"norad_id": 38250, "name": "BEIDOU-2 M3 (C11)", "group": "beidou", "lat": 42.00820474710533, "lon": -10.97715291163127, "alt_km": 21575.984855050145, "timestamp": "2025-12-02T17:49:12.292914+00:00", "meta": {"OBJECT_NAME": "BEIDOU-2 M3 (C11)", "OBJECT_ID": "2012-018A", "EPOCH": "2025-12-01T01:13:35.126400", "MEAN_MOTION": 1.86229725, "ECCENTRICITY": 0.00245382, "INCLINATION": 55.9302, "RA_OF_ASC_NODE": 311.5507, "ARG_OF_PERICENTER": 273.3676, "MEAN_ANOMALY": 86.348, "EPHEMERIS_TYPE": 0, "CLASSIFICATION_TYPE": "U", "NORAD_CAT_ID": 38250, "ELEMENT_SET_NO": 999, "REV_AT_EPOCH": 9225, "BSTAR": 0, "MEAN_MOTION_DOT": -5.3e-07, "MEAN_MOTION_DDOT": 0}, "tle": {"line1": "1 38250U 12018A   25335.05110100 -.00000053  00000+0  00000+0 0  9993", "line2": "2 38250  55.9302 311.5507 0024538 273.3676  86.3480  1.86229725 92251"}}, "geometry": {"type": "Point", "coordinates": [-10.97715291163127, 42.00820474710533]}}, {"type": "Feature", "properties": {"norad_id": 38251, "name": "BEIDOU-2 M4 (C12)", "group": "beidou", "lat": 54.702444987752536, "lon": 57.12471953570862, "alt_km": 21565.627613413322, "timestamp": "2025-12-02T17:49:12.292925+00:00", "meta": {"OBJECT_NAME": "BEIDOU-2 M4 (C12)", "OBJECT_ID": "2012-018B", "EPOCH": "2025-11-30T23:35:43.237248", "MEAN_MOTION": 1.86229405, "ECCENTRICITY": 0.00156645, "INCLINATION": 55.8317, "RA_OF_ASC_NODE": 310.7829, "ARG_OF_PERICENTER": 276.4205, "MEAN_ANOMALY": 83.3972, "EPHEMERIS_TYPE": 0, "CLASSIFICATION_TYPE": "U", "NORAD_CAT_ID": 38251, "ELEMENT_SET_NO": 999, "REV_AT_EPOCH": 9225, "BSTAR": 0, "MEAN_MOTION_DOT": -5.3e-07, "MEAN_MOTION_DDOT": 0}, "tle": {"line1": "1 38251U 12018B   25334.98313932 -.00000053  00000+0  00000+0 0  9993", "line2": "2 38251  55.8317 310.7829 0015664 276.4205  83.3972  1.86229405 92255"}}, "geometry": {"type": "Point", "coordinates": [57.12471953570862, 54.702444987752536]}}, {"type": "Feature", "properties": {"norad_id": 38775, "name": "BEIDOU-2 M6 (C14)", "group": "beidou", "lat": -49.93366983836832, "lon": 17.195145884281214, "alt_km": 21515.485950675597, "timestamp": "2025-12-02T17:49:12.292936+00:00", "meta": {"OBJECT_NAME": "BEIDOU-2 M6 (C14)", "OBJECT_ID": "2012-050B", "EPOCH": "2025-12-01T18:25:55.892928", "MEAN_MOTION": 1.86230731, "ECCENTRICITY": 0.0010865, "INCLINATION": 56.3691, "RA_OF_ASC_NODE": 69.4317, "ARG_OF_PERICENTER": 346.4712, "MEAN_ANOMALY": 13.5024, "EPHEMERIS_TYPE": 0, "CLASSIFICATION_TYPE": "U", "NORAD_CAT_ID": 38775, "ELEMENT_SET_NO": 999, "REV_AT_EPOCH": 8963, "BSTAR": 0, "MEAN_MOTION_DOT": -4.3e-07, "MEAN_MOTION_DDOT": 0}, "tle": {"line1": "1 38775U 12050B   25335.76800802 -.00000043  00000+0  00000+0 0  9993", "line2": "2 38775  56.3691  69.4317 0010865 346.4712  13.5024  1.86230731 89631"}}, "geometry": {"type": "Point", "coordinates": [17.195145884281214, -49.93366983836832]}}]}